CUTE-1 (CO-55)          
1 27844U 03031E   26177.94213012  .00000288  00000+0  14336-3 0  9994
2 27844  98.6737 186.3784 0010126 150.6275 209.5475 14.24341351193069
CUBESAT XI-IV (CO-57)   
1 27848U 03031J   26177.93548419  .00000243  00000+0  12580-3 0  9999
2 27848  98.6768 186.0767 0009653 168.4758 191.6643 14.23625736192766
CUBESAT XI-V            
1 28895U 05043F   26177.91503074  .00001438  00000+0  23373-3 0  9992
2 28895  98.2993 333.7414 0014316 169.8184 190.3315 14.72656457103183
CUTE-1.7+APD II (CO-65) 
1 32785U 08021C   26177.92694806  .00004953  00000+0  31261-3 0  9999
2 32785  97.8272 159.5484 0008764   8.9415 351.1968 15.09541243986662
CANX-2                  
1 32790U 08021H   26177.92462934  .00003739  00000+0  26291-3 0  9998
2 32790  97.8635 157.8920 0010772  22.2102 337.9588 15.05685256986277
SEEDS II (CO-66)        
1 32791U 08021J   26177.92722942  .00019616  00000+0  61568-3 0  9994
2 32791  97.7516 176.2919 0000555 212.5247 147.5960 15.33073710988784
SWISSCUBE               
1 35932U 09051B   26177.47338387  .00000909  00000+0  18915-3 0  9997
2 35932  98.4029  85.5233 0006640 172.3713 187.7590 14.62497638890512
BEESAT-1                
1 35933U 09051C   26177.69301354  .00000752  00000+0  16076-3 0  9998
2 35933  98.3957  85.3622 0004848 183.3217 176.7952 14.61734342890572
ITUPSAT1                
1 35935U 09051E   26177.69222981  .00000700  00000+0  15443-3 0  9998
2 35935  98.4042  84.5432 0006750 199.9772 160.1164 14.60453570890126
TISAT 1                 
1 36799U 10035E   26177.84995861  .00021467  00000+0  69496-3 0  9992
2 36799  98.0703 125.2583 0002724 151.4627 208.6762 15.32064070869181
AEROCUBE 4.5A           
1 38767U 12048K   26177.90245807  .01128523  78125-3  12150-2 0  9993
2 38767  64.6180 351.0016 0018559 253.1151 106.7983 16.09463675374218
STRAND-1                
1 39090U 13009E   26177.94228705  .00000286  00000+0  11041-3 0  9999
2 39090  98.3924 357.9366 0008273 193.8738 166.2222 14.37168802698460
BRITE-AUSTRIA           
1 39091U 13009F   26177.95938208  .00000166  00000+0  70971-4 0  9992
2 39091  98.3998 357.1533 0009622 204.7667 155.3059 14.36545680698450
NEE-01 PEGASO           
1 39151U 13018B   26177.91213122  .00002348  00000+0  22736-3 0  9995
2 39151  98.1232 322.3845 0013542 129.0696 231.1730 14.93707973712154
POPACS 2                
1 39269U 13055E   26177.90568678  .00015110  00000+0  25348-3 0  9997
2 39269  80.9907 133.0666 0416428 162.5758 199.0261 14.91465034664661
POPACS 3                
1 39270U 13055F   26177.53263875  .00010697  00000+0  25217-3 0  9999
2 39270  81.0003 219.0538 0551198  41.5466 322.6276 14.56288219639910
ZACUBE-1 (TSHEPISOSAT)  
1 39417U 13066B   26177.93888484  .00003397  00000+0  26450-3 0  9996
2 39417  97.8047 140.3257 0042157 214.4867 145.3620 15.01239608682196
WNISAT-1                
1 39423U 13066H   26177.95599885  .00001124  00000+0  21252-3 0  9990
2 39423  97.7211 326.4194 0162571 200.6625 158.7953 14.58080550668152
TRITON-1                
1 39427U 13066M   26177.95255807  .00001703  00000+0  20853-3 0  9996
2 39427  97.8242  87.5375 0089110 201.6225 158.1216 14.81734762675534
GOMX-1                  
1 39430U 13066Q   26177.92317303  .00001969  00000+0  29942-3 0  9999
2 39430  97.6486  17.7715 0129847  46.6410 314.5528 14.69492351671344
CUBEBUG-2 (LO-74)       
1 39440U 13066AA  26177.84289460  .00004208  00000+0  38943-3 0  9993
2 39440  97.8903 126.8620 0057442 357.1295   2.9586 14.93837093678432
NEE-02 KRYSAOR          
1 39441U 13066AB  26177.76677494  .00002672  00000+0  29517-3 0  9993
2 39441  97.8892 116.9131 0067124  39.4303 321.1770 14.86659035677626
FUNCUBE-1 (AO-73)       
1 39444U 13066AE  26177.86706572  .00007885  00000+0  48707-3 0  9990
2 39444  97.8271 149.5153 0036628 168.0443 192.1663 15.09599724681126
UWE-3                   
1 39446U 13066AG  26177.84042902  .00004205  00000+0  36187-3 0  9992
2 39446  97.8709 133.9799 0046794 288.3987  71.2149 14.97101122679020
BRITE-CA1 (TORONTO)     
1 40020U 14033L   26177.88972236  .00000844  00000+0  13452-3 0  9998
2 40020  97.9749 306.6393 0077345 245.4033 113.9102 14.72690941643643
DUCHIFAT-1              
1 40021U 14033M   26177.60974735  .00111371  00000+0  10572-2 0  9992
2 40021  98.0448 238.1065 0001317 100.0937 260.0470 15.66536146657223
NANOSATC-BR1            
1 40024U 14033Q   26177.35208476  .00019164  00000+0  62707-3 0  9994
2 40024  98.0721 210.5531 0005038 140.2235 219.9374 15.31739274655383
QB50P1                  
1 40025U 14033R   26177.96968864  .00008965  00000+0  43898-3 0  9993
2 40025  98.0962 189.8021 0008800 180.7025 179.4197 15.18403426654518
QB50P2                  
1 40032U 14033Y   26177.93986303  .00007905  00000+0  42349-3 0  9999
2 40032  98.0751 175.4276 0008808 134.4942 225.7010 15.15279708654146
PERSEUS-M2              
1 40037U 14033AD  26177.89851294  .00001832  00000+0  17068-3 0  9992
2 40037  97.9971 128.6369 0009998 268.8433  91.1642 14.95543864652232
